IRIDIUM 112             
1 41925U 17003J   24117.58658532  .00000681  00000+0  23618-3 0  9996
2 41925  86.3988  54.9311 0002601  90.9918 269.1576 14.34212991381243
IRIDIUM 111             
1 41926U 17003K   24117.57391647  .00000721  00000+0  25030-3 0  9992
2 41926  86.3984  54.9894 0002524  84.8325 275.3159 14.34218086381229
IRIDIUM 113             
1 42803U 17039A   24117.55388087  .00000162  00000+0  50951-4 0  9998
2 42803  86.3921 288.7797 0002355  90.8118 269.3347 14.34217331359154
IRIDIUM 123             
1 42804U 17039B   24117.80464773  .00000630  00000+0  21777-3 0  9997
2 42804  86.3943 320.1946 0002423  83.7374 276.4098 14.34216195357952
IRIDIUM 120             
1 42805U 17039C   24117.54753704  .00000073  00000+0  19148-4 0  9995
2 42805  86.3909 288.6662 0002019  86.0429 274.0998 14.34217580359141
IRIDIUM 115             
1 42806U 17039D   24117.55202334  .00000426  00000+0  12067-3 0  9999
2 42806  86.4448 288.6814 0002305  86.1799 273.9665 14.43277651361528
IRIDIUM 118             
1 42807U 17039E   24117.62705996  .00000059  00000+0  14001-4 0  9993
2 42807  86.3947 320.2699 0002115  93.2515 266.8923 14.34215535357920
IRIDIUM 117             
1 42808U 17039F   24117.64608383  .00000045  00000+0  89153-5 0  9994
2 42808  86.3946 320.2267 0002214  84.6998 275.4450 14.34215785357951
